ONEWEB-0258             
1 48976U 21060K   24200.16030084  .00000186  00000+0  45310-3 0  9993
2 48976  87.9111   7.9601 0001711  90.8051 269.3276 13.16596772148891
ONEWEB-0259             
1 48977U 21060L   24199.92596958  .00000105  00000+0  24014-3 0  9991
2 48977  87.9109   7.9916 0001541  88.7890 271.3418 13.16596649147619
ONEWEB-0260             
1 48978U 21060M   24199.91728467  .00000125  00000+0  29353-3 0  9996
2 48978  87.9109   8.0222 0002403  86.3739 273.7666 13.16595815147598
ONEWEB-0261             
1 48979U 21060N   24200.49438628  .00000036  00000+0  61176-4 0  9991
2 48979  87.9111   7.9015 0001844  72.4065 287.7267 13.16593849149023
ONEWEB-0262             
1 48980U 21060P   24199.94340962  .00000047  00000+0  90012-4 0  9996
2 48980  87.9111   7.9747 0001395  81.8204 278.3085 13.16594973147613
ONEWEB-0263             
1 48981U 21060Q   24200.20306441  .00000016  00000+0  73698-5 0  9991
2 48981  87.9112   7.9403 0001633  75.6498 284.4814 13.16593713148918
ONEWEB-0264             
1 48982U 21060R   24200.16427752  .00000190  00000+0  46402-3 0  9990
2 48982  87.9112   7.9591 0001784  88.1159 272.0176 13.16596206148900
ONEWEB-0266             
1 48984U 21060T   24200.48963547  .00000036  00000+0  59862-4 0  9998
2 48984  87.9110   7.8711 0001746  93.7638 266.3692 13.16593792148945
